{"type":"Feature","properties":{"source":"Natural Earth 1:10m","source_revision":"ca96624a56bd078437bca8184e78163e5039ad19","source_file":"ne_10m_admin_1_states_provinces.geojson","name":"Seoul"},"geometry":{"type":"Polygon","coordinates":[[[127.054292,37.683127],[127.090258,37.680801],[127.107415,37.657392],[127.11403,37.625559],[127.124468,37.603312],[127.125088,37.578895],[127.11589,37.550576],[127.143278,37.550835],[127.16674,37.557553],[127.1871,37.557785],[127.194748,37.543238],[127.192061,37.52833],[127.178108,37.522723],[127.162915,37.514713],[127.163226,37.496626],[127.171287,37.489443],[127.15413,37.47084],[127.144622,37.457766],[127.11868,37.445518],[127.090155,37.440247],[127.060803,37.428517],[127.049331,37.449446],[127.024319,37.444847],[126.999515,37.438697],[126.981945,37.430687],[126.963651,37.42831],[126.92076,37.429473],[126.891408,37.460143],[126.862469,37.467067],[126.842522,37.477506],[126.837251,37.506212],[126.817407,37.528666],[126.793739,37.551662],[126.808725,37.577216],[126.836734,37.575795],[126.868773,37.560292],[126.892544,37.5667],[126.913732,37.576931],[126.915385,37.59414],[126.921173,37.610004],[126.966028,37.613415],[126.989076,37.636669],[127.003132,37.660286],[127.023079,37.67721],[127.054292,37.683127]]]}}
